start=new Date('2022-07-03T00:00:00.000Z').valueOf();
sats=[{"OBJECT_TYPE":"PAYLOAD","PERIAPSIS":"546.197","TLE_LINE2":"2 47392  53.0557 314.7018 0001490  79.7450 280.3707 15.06394884 80566","MEAN_MOTION_DOT":"0.00000061","EPOCH":"2022-07-02T13:06:16.102080","INCLINATION":"53.0557","DECAY_DATE":null,"SEMIMAJOR_AXIS":"6925.364","REF_FRAME":"TEME","CLASSIFICATION_TYPE":"U","EPHEMERIS_TYPE":"0","OBJECT_ID":"2021-005AV","TIME_SYSTEM":"UTC","SITE":"AFETR","PERIOD":"95.592","GP_ID":"207267155","COUNTRY_CODE":"US","BSTAR":"0.00002301500000","ELEMENT_SET_NO":"999","ECCENTRICITY":"0.00014900","CENTER_NAME":"EARTH","RA_OF_ASC_NODE":"314.7018","FILE":"3506647","REV_AT_EPOCH":"8056","RCS_SIZE":"LARGE","OBJECT_NAME":"STARLINK-2113","NORAD_CAT_ID":"47392","APOAPSIS":"548.261","MEAN_MOTION_DDOT":"0.0000000000000","LAUNCH_DATE":"2021-01-20","MEAN_ELEMENT_THEORY":"SGP4","MEAN_MOTION":"15.06394884","ARG_OF_PERICENTER":"79.7450","TLE_LINE1":"1 47392U 21005AV  22183.54601970  .00000061  00000-0  23015-4 0  9993","MEAN_ANOMALY":"280.3707"},{"TIME_SYSTEM":"UTC","SITE":"AFETR","EPHEMERIS_TYPE":"0","OBJECT_ID":"2021-005AW","PERIOD":"95.592","GP_ID":"207265904","COUNTRY_CODE":"US","PERIAPSIS":"546.229","MEAN_MOTION_DOT":"0.00000336","EPOCH":"2022-07-02T13:44:08.120544","TLE_LINE2":"2 47393  53.0550 289.9194 0001400  61.8401 298.2729 15.06405020 80913","OBJECT_TYPE":"PAYLOAD","CLASSIFICATION_TYPE":"U","REF_FRAME":"TEME","SEMIMAJOR_AXIS":"6925.333","INCLINATION":"53.0550","DECAY_DATE":null,"LAUNCH_DATE":"2021-01-20","MEAN_ELEMENT_THEORY":"SGP4","MEAN_MOTION":"15.06405020","APOAPSIS":"548.168","MEAN_MOTION_DDOT":"0.0000000000000","ARG_OF_PERICENTER":"61.8401","MEAN_ANOMALY":"298.2729","TLE_LINE1":"1 47393U 21005AW  22183.57231621  .00000336  00000-0  41466-4 0  9994","BSTAR":"0.00004146600000","RCS_SIZE":"LARGE","OBJECT_NAME":"STARLINK-2114","NORAD_CAT_ID":"47393","CENTER_NAME":"EARTH","ELEMENT_SET_NO":"999","ECCENTRICITY":"0.00014000","FILE":"3506647","RA_OF_ASC_NODE":"289.9194","REV_AT_EPOCH":"8091"},{"OBJECT_NAME":"STARLINK-2115","NORAD_CAT_ID":"47394","RCS_SIZE":"LARGE","FILE":"3506647","REV_AT_EPOCH":"8064","RA_OF_ASC_NODE":"309.7409","ELEMENT_SET_NO":"999","ECCENTRICITY":"0.00018110","CENTER_NAME":"EARTH","BSTAR":"0.00008768600000","TLE_LINE1":"1 47394U 21005AX  22183.57044539  .00001025  00000-0  87686-4 0  9995","MEAN_ANOMALY":"308.2621","ARG_OF_PERICENTER":"51.8531","MEAN_MOTION":"15.06401419","MEAN_ELEMENT_THEORY":"SGP4","LAUNCH_DATE":"2021-01-20","MEAN_MOTION_DDOT":"0.0000000000000","APOAPSIS":"548.463","SEMIMAJOR_AXIS":"6925.344","REF_FRAME":"TEME","CLASSIFICATION_TYPE":"U","DECAY_DATE":null,"INCLINATION":"53.0576","TLE_LINE2":"2 47394  53.0576 309.7409 0001811  51.8531 308.2621 15.06401419 80642","MEAN_MOTION_DOT":"0.00001025","EPOCH":"2022-07-02T13:41:26.481696","PERIAPSIS":"545.955","OBJECT_TYPE":"PAYLOAD","GP_ID":"207266654","COUNTRY_CODE":"US","PERIOD":"95.592","SITE":"AFETR","TIME_SYSTEM":"UTC","EPHEMERIS_TYPE":"0","OBJECT_ID":"2021-005AX"},{"MEAN_ANOMALY":"302.3758","TLE_LINE1":"1 47395U 21005AY  22183.59115944  .00000465  00000-0  50094-4 0  9997","ARG_OF_PERICENTER":"57.7410","MEAN_MOTION":"15.06410029","MEAN_ELEMENT_THEORY":"SGP4","LAUNCH_DATE":"2021-01-20","MEAN_MOTION_DDOT":"0.0000000000000","APOAPSIS":"548.463","OBJECT_NAME":"STARLINK-2117","NORAD_CAT_ID":"47395","RCS_SIZE":"LARGE","REV_AT_EPOCH":"8071","FILE":"3506647","RA_OF_ASC_NODE":"304.4968","ECCENTRICITY":"0.00018490","ELEMENT_SET_NO":"999","CENTER_NAME":"EARTH","BSTAR":"0.00005009400000","GP_ID":"207266905","COUNTRY_CODE":"US","PERIOD":"95.592","SITE":"AFETR","TIME_SYSTEM":"UTC","EPHEMERIS_TYPE":"0","OBJECT_ID":"2021-005AY","CLASSIFICATION_TYPE":"U","REF_FRAME":"TEME","SEMIMAJOR_AXIS":"6925.318","DECAY_DATE":null,"INCLINATION":"53.0556","MEAN_MOTION_DOT":"0.00000465","EPOCH":"2022-07-02T14:11:16.175616","TLE_LINE2":"2 47395  53.0556 304.4968 0001849  57.7410 302.3758 15.06410029 80716","PERIAPSIS":"545.902","OBJECT_TYPE":"PAYLOAD"},{"MEAN_MOTION":"15.06408294","MEAN_ELEMENT_THEORY":"SGP4","LAUNCH_DATE":"2021-01-20","APOAPSIS":"548.003","MEAN_MOTION_DDOT":"0.0000000000000","MEAN_ANOMALY":"269.5587","TLE_LINE1":"1 47396U 21005AZ  22183.56812553  .00000081  00000-0  24318-4 0  9999","ARG_OF_PERICENTER":"90.5537","BSTAR":"0.00002431800000","NORAD_CAT_ID":"47396","OBJECT_NAME":"STARLINK-2118","RCS_SIZE":"LARGE","REV_AT_EPOCH":"8057","FILE":"3506647","RA_OF_ASC_NODE":"314.5960","CENTER_NAME":"EARTH","ELEMENT_SET_NO":"999","ECCENTRICITY":"0.00011770","SITE":"AFETR","TIME_SYSTEM":"UTC","EPHEMERIS_TYPE":"0","OBJECT_ID":"2021-005AZ","GP_ID":"207267655","COUNTRY_CODE":"US","PERIOD":"95.592","MEAN_MOTION_DOT":"0.00000081","EPOCH":"2022-07-02T13:38:06.045792","TLE_LINE2":"2 47396  53.0559 314.5960 0001177  90.5537 269.5587 15.06408294 80572","PERIAPSIS":"546.373","OBJECT_TYPE":"PAYLOAD","CLASSIFICATION_TYPE":"U","REF_FRAME":"TEME","SEMIMAJOR_AXIS":"6925.323","DECAY_DATE":null,"INCLINATION":"53.0559"},{"EPHEMERIS_TYPE":"0","OBJECT_ID":"2021-005BA","TIME_SYSTEM":"UTC","SITE":"AFETR","PERIOD":"95.592","GP_ID":"207266404","COUNTRY_CODE":"US","OBJECT_TYPE":"PAYLOAD","PERIAPSIS":"546.171","TLE_LINE2":"2 47397  53.0557 344.8963 0001500  68.5277 291.5872 15.06401224 80147","MEAN_MOTION_DOT":"0.00001242","EPOCH":"2022-07-02T11:58:34.883040","INCLINATION":"53.0557","DECAY_DATE":null,"SEMIMAJOR_AXIS":"6925.345","REF_FRAME":"TEME","CLASSIFICATION_TYPE":"U","APOAPSIS":"548.249","MEAN_MOTION_DDOT":"0.0000000000000","LAUNCH_DATE":"2021-01-20","MEAN_ELEMENT_THEORY":"SGP4","MEAN_MOTION":"15.06401224","ARG_OF_PERICENTER":"68.5277","TLE_LINE1":"1 47397U 21005BA  22183.49901485  .00001242  00000-0  10226-3 0  9997","MEAN_ANOMALY":"291.5872","BSTAR":"0.00010226000000","ECCENTRICITY":"0.00015000","ELEMENT_SET_NO":"999","CENTER_NAME":"EARTH","RA_OF_ASC_NODE":"344.8963","FILE":"3506647","REV_AT_EPOCH":"8014","RCS_SIZE":"LARGE","OBJECT_NAME":"STARLINK-2119","NORAD_CAT_ID":"47397"},{"MEAN_MOTION":"15.06399308","MEAN_ELEMENT_THEORY":"SGP4","LAUNCH_DATE":"2021-01-20","MEAN_MOTION_DDOT":"0.0000000000000","APOAPSIS":"548.198","MEAN_ANOMALY":"285.4861","TLE_LINE1":"1 47398U 21005BB  22183.53864514  .00000008  00000-0  19400-4 0  9997","ARG_OF_PERICENTER":"74.6284","BSTAR":"0.00001940000000","NORAD_CAT_ID":"47398","OBJECT_NAME":"STARLINK-2120","RCS_SIZE":"LARGE","REV_AT_EPOCH":"8056","FILE":"3506647","RA_OF_ASC_NODE":"314.7363","ELEMENT_SET_NO":"999","ECCENTRICITY":"0.00014180","CENTER_NAME":"EARTH","SITE":"AFETR","TIME_SYSTEM":"UTC","OBJECT_ID":"2021-005BB","EPHEMERIS_TYPE":"0","GP_ID":"207266155","COUNTRY_CODE":"US","PERIOD":"95.592","MEAN_MOTION_DOT":"0.00000008","EPOCH":"2022-07-02T12:55:38.940096","TLE_LINE2":"2 47398  53.0564 314.7363 0001418  74.6284 285.4861 15.06399308 80565","PERIAPSIS":"546.234","OBJECT_TYPE":"PAYLOAD","REF_FRAME":"TEME","CLASSIFICATION_TYPE":"U","SEMIMAJOR_AXIS":"6925.351","DECAY_DATE":null,"INCLINATION":"53.0564"},{"MEAN_MOTION_DOT":"0.00001611","EPOCH":"2022-07-02T15:22:58.448064","TLE_LINE2":"2 47399  53.0550 324.5102 0001497  70.5143 289.6007 15.06407686 80430","PERIAPSIS":"546.153","OBJECT_TYPE":"PAYLOAD","CLASSIFICATION_TYPE":"U","REF_FRAME":"TEME","SEMIMAJOR_AXIS":"6925.325","DECAY_DATE":null,"INCLINATION":"53.0550","SITE":"AFETR","TIME_SYSTEM":"UTC","OBJECT_ID":"2021-005BC","EPHEMERIS_TYPE":"0","COUNTRY_CODE":"US","GP_ID":"207271430","PERIOD":"95.592","BSTAR":"0.00012697000000","NORAD_CAT_ID":"47399","OBJECT_NAME":"STARLINK-2121","RCS_SIZE":"LARGE","REV_AT_EPOCH":"8043","FILE":"3506688","RA_OF_ASC_NODE":"324.5102","ELEMENT_SET_NO":"999","ECCENTRICITY":"0.00014970","CENTER_NAME":"EARTH","MEAN_MOTION":"15.06407686","MEAN_ELEMENT_THEORY":"SGP4","LAUNCH_DATE":"2021-01-20","APOAPSIS":"548.227","MEAN_MOTION_DDOT":"0.0000000000000","MEAN_ANOMALY":"289.6007","TLE_LINE1":"1 47399U 21005BC  22183.64095426  .00001611  00000-0  12697-3 0  9999","ARG_OF_PERICENTER":"70.5143"},{"OBJECT_NAME":"STARLINK-2122","NORAD_CAT_ID":"47400","RCS_SIZE":"LARGE","RA_OF_ASC_NODE":"303.8503","FILE":"3506763","REV_AT_EPOCH":"8073","ELEMENT_SET_NO":"999","CENTER_NAME":"EARTH","ECCENTRICITY":"0.00013470","BSTAR":"0.00005363700000","MEAN_ANOMALY":"295.3864","TLE_LINE1":"1 47400U 21005BD  22183.73491919  .00000518  00000-0  53637-4 0  9994","ARG_OF_PERICENTER":"64.7265","MEAN_MOTION":"15.06402104","MEAN_ELEMENT_THEORY":"SGP4","LAUNCH_DATE":"2021-01-20","APOAPSIS":"548.140","MEAN_MOTION_DDOT":"0.0000000000000","CLASSIFICATION_TYPE":"U","REF_FRAME":"TEME","SEMIMAJOR_AXIS":"6925.342","DECAY_DATE":null,"INCLINATION":"53.0568","MEAN_MOTION_DOT":"0.00000518","EPOCH":"2022-07-02T17:38:17.018016","TLE_LINE2":"2 47400  53.0568 303.8503 0001347  64.7265 295.3864 15.06402104 80739","PERIAPSIS":"546.274","OBJECT_TYPE":"PAYLOAD","GP_ID":"207273004","COUNTRY_CODE":"US","PERIOD":"95.592","SITE":"AFETR","TIME_SYSTEM":"UTC","EPHEMERIS_TYPE":"0","OBJECT_ID":"2021-005BD"},{"ARG_OF_PERICENTER":"61.9128","TLE_LINE1":"1 47401U 21005BE  22183.68607151  .00000657  00000-0  62978-4 0  9998","MEAN_ANOMALY":"298.2032","LAUNCH_DATE":"2021-01-20","MEAN_ELEMENT_THEORY":"SGP4","MEAN_MOTION":"15.06406763","MEAN_MOTION_DDOT":"0.0000000000000","APOAPSIS":"548.361","RCS_SIZE":"LARGE","OBJECT_NAME":"STARLINK-2123","NORAD_CAT_ID":"47401","ELEMENT_SET_NO":"999","ECCENTRICITY":"0.00016870","CENTER_NAME":"EARTH","FILE":"3506688","RA_OF_ASC_NODE":"314.0773","REV_AT_EPOCH":"8120","BSTAR":"0.00006297800000","PERIOD":"95.592","COUNTRY_CODE":"US","GP_ID":"207271607","TIME_SYSTEM":"UTC","SITE":"AFETR","OBJECT_ID":"2021-005BE","EPHEMERIS_TYPE":"0","SEMIMAJOR_AXIS":"6925.328","CLASSIFICATION_TYPE":"U","REF_FRAME":"TEME","INCLINATION":"53.0562","DECAY_DATE":null,"PERIAPSIS":"546.025","TLE_LINE2":"2 47401  53.0562 314.0773 0001687  61.9128 298.2032 15.06406763 81208","MEAN_MOTION_DOT":"0.00000657","EPOCH":"2022-07-02T16:27:56.578464","OBJECT_TYPE":"PAYLOAD"}];
